{
  "type": "FeatureCollection",
  "features": [
    {
      "type": "Feature",
      "properties": {
        "norad_id": 30416,
        "name": "FENGYUN 1C DEB",
        "group": "fengyun-1c-debris",
        "lat": -56.35763102618795,
        "lon": 35.08678653325763,
        "alt_km": 923.8155324106974,
        "timestamp": "2025-12-23T11:34:48.439920+00:00",
        "meta_object_name": "FENGYUN 1C DEB",
        "meta_object_id": "1999-025AEF",
        "meta_epoch": "2025-12-22T23:52:19.909632",
        "meta_mean_motion": 14.02644691,
        "meta_eccentricity": 0.0055779,
        "meta_inclination": 98.8354,
        "meta_ra_of_asc_node": 21.0969,
        "meta_arg_of_pericenter": 161.3236,
        "meta_mean_anomaly": 198.9994,
        "meta_ephemeris_type": 0,
        "meta_classification_type": "U",
        "meta_norad_cat_id": 30416,
        "meta_element_set_no": 999,
        "meta_rev_at_epoch": 96768,
        "meta_bstar": 0.00040497,
        "meta_mean_motion_dot": 5.91e-06,
        "meta_mean_motion_ddot": 0,
        "tle_line1": "1 30416U 99025AEF 25356.99467488  .00000591  00000+0  40497-3 0  9996",
        "tle_line2": "2 30416  98.8354  21.0969 0055779 161.3236 198.9994 14.02644691967687"
      },
      "geometry": {
        "type": "Point",
        "coordinates": [
          35.08678653325763,
          -56.35763102618795
        ]
      }
    },
    {
      "type": "Feature",
      "properties": {
        "norad_id": 30417,
        "name": "FENGYUN 1C DEB",
        "group": "fengyun-1c-debris",
        "lat": -79.57407367741884,
        "lon": 110.92707112677866,
        "alt_km": 897.2278072577092,
        "timestamp": "2025-12-23T11:34:48.439929+00:00",
        "meta_object_name": "FENGYUN 1C DEB",
        "meta_object_id": "1999-025AEG",
        "meta_epoch": "2025-12-22T22:42:45.345024",
        "meta_mean_motion": 14.14673564,
        "meta_eccentricity": 0.0064652,
        "meta_inclination": 98.6936,
        "meta_ra_of_asc_node": 346.6617,
        "meta_arg_of_pericenter": 91.2195,
        "meta_mean_anomaly": 323.9562,
        "meta_ephemeris_type": 0,
        "meta_classification_type": "U",
        "meta_norad_cat_id": 30417,
        "meta_element_set_no": 999,
        "meta_rev_at_epoch": 97533,
        "meta_bstar": 0.00025689,
        "meta_mean_motion_dot": 4.62e-06,
        "meta_mean_motion_ddot": 0,
        "tle_line1": "1 30417U 99025AEG 25356.94635816  .00000462  00000+0  25689-3 0  9997",
        "tle_line2": "2 30417  98.6936 346.6617 0064652  91.2195 323.9562 14.14673564975339"
      },
      "geometry": {
        "type": "Point",
        "coordinates": [
          110.92707112677866,
          -79.57407367741884
        ]
      }
    },
    {
      "type": "Feature",
      "properties": {
        "norad_id": 30418,
        "name": "FENGYUN 1C DEB",
        "group": "fengyun-1c-debris",
        "lat": -32.47717599037992,
        "lon": -27.26049662902712,
        "alt_km": 672.4433930763007,
        "timestamp": "2025-12-23T11:34:48.439938+00:00",
        "meta_object_name": "FENGYUN 1C DEB",
        "meta_object_id": "1999-025AEH",
        "meta_epoch": "2025-12-22T16:54:10.821888",
        "meta_mean_motion": 14.84335726,
        "meta_eccentricity": 0.01110218,
        "meta_inclination": 98.841,
        "meta_ra_of_asc_node": 157.5631,
        "meta_arg_of_pericenter": 84.0512,
        "meta_mean_anomaly": 291.7929,
        "meta_ephemeris_type": 0,
        "meta_classification_type": "U",
        "meta_norad_cat_id": 30418,
        "meta_element_set_no": 999,
        "meta_rev_at_epoch": 740,
        "meta_bstar": 0.00070222598,
        "meta_mean_motion_dot": 6.511e-05,
        "meta_mean_motion_ddot": 0,
        "tle_line1": "1 30418U 99025AEH 25356.70429192  .00006511  00000+0  70223-3 0  9995",
        "tle_line2": "2 30418  98.8410 157.5631 0111021  84.0512 291.7929 14.84335726  7405"
      },
      "geometry": {
        "type": "Point",
        "coordinates": [
          -27.26049662902712,
          -32.47717599037992
        ]
      }
    },
    {
      "type": "Feature",
      "properties": {
        "norad_id": 30419,
        "name": "FENGYUN 1C DEB",
        "group": "fengyun-1c-debris",
        "lat": -78.07714554480478,
        "lon": -4.841355261657529,
        "alt_km": 830.8009222732271,
        "timestamp": "2025-12-23T11:34:48.439947+00:00",
        "meta_object_name": "FENGYUN 1C DEB",
        "meta_object_id": "1999-025AEJ",
        "meta_epoch": "2025-12-22T19:10:16.432320",
        "meta_mean_motion": 14.18071132,
        "meta_eccentricity": 0.0052788,
        "meta_inclination": 99.2418,
        "meta_ra_of_asc_node": 303.9948,
        "meta_arg_of_pericenter": 357.0942,
        "meta_mean_anomaly": 32.6547,
        "meta_ephemeris_type": 0,
        "meta_classification_type": "U",
        "meta_norad_cat_id": 30419,
        "meta_element_set_no": 999,
        "meta_rev_at_epoch": 97491,
        "meta_bstar": 0.00073117467,
        "meta_mean_motion_dot": 1.472e-05,
        "meta_mean_motion_ddot": 0,
        "tle_line1": "1 30419U 99025AEJ 25356.79880130  .00001472  00000+0  73117-3 0  9994",
        "tle_line2": "2 30419  99.2418 303.9948 0052788 357.0942  32.6547 14.18071132974913"
      },
      "geometry": {
        "type": "Point",
        "coordinates": [
          -4.841355261657529,
          -78.07714554480478
        ]
      }
    },
    {
      "type": "Feature",
      "properties": {
        "norad_id": 30432,
        "name": "FENGYUN 1C DEB",
        "group": "fengyun-1c-debris",
        "lat": 64.28040536783504,
        "lon": -122.13396177702514,
        "alt_km": 777.7086586172754,
        "timestamp": "2025-12-23T11:34:48.439956+00:00",
        "meta_object_name": "FENGYUN 1C DEB",
        "meta_object_id": "1999-025AET",
        "meta_epoch": "2025-12-22T03:36:27.690336",
        "meta_mean_motion": 14.4071992,
        "meta_eccentricity": 0.00824492,
        "meta_inclination": 98.8359,
        "meta_ra_of_asc_node": 255.3305,
        "meta_arg_of_pericenter": 311.0124,
        "meta_mean_anomaly": 48.3954,
        "meta_ephemeris_type": 0,
        "meta_classification_type": "U",
        "meta_norad_cat_id": 30432,
        "meta_element_set_no": 999,
        "meta_rev_at_epoch": 98870,
        "meta_bstar": 0.00060728905,
        "meta_mean_motion_dot": 1.971e-05,
        "meta_mean_motion_ddot": 0,
        "tle_line1": "1 30432U 99025AET 25356.15032049  .00001971  00000+0  60729-3 0  9996",
        "tle_line2": "2 30432  98.8359 255.3305 0082449 311.0124  48.3954 14.40719920988700"
      },
      "geometry": {
        "type": "Point",
        "coordinates": [
          -122.13396177702514,
          64.28040536783504
        ]
      }
    },
    {
      "type": "Feature",
      "properties": {
        "norad_id": 30434,
        "name": "FENGYUN 1C DEB",
        "group": "fengyun-1c-debris",
        "lat": 78.00050043666194,
        "lon": -64.25033392711919,
        "alt_km": 962.1285157961247,
        "timestamp": "2025-12-23T11:34:48.439966+00:00",
        "meta_object_name": "FENGYUN 1C DEB",
        "meta_object_id": "1999-025AEV",
        "meta_epoch": "2025-12-21T18:35:04.020576",
        "meta_mean_motion": 13.90658292,
        "meta_eccentricity": 0.01210342,
        "meta_inclination": 98.9999,
        "meta_ra_of_asc_node": 342.3081,
        "meta_arg_of_pericenter": 206.5006,
        "meta_mean_anomaly": 329.7568,
        "meta_ephemeris_type": 0,
        "meta_classification_type": "U",
        "meta_norad_cat_id": 30434,
        "meta_element_set_no": 999,
        "meta_rev_at_epoch": 95832,
        "meta_bstar": 0.00027168351,
        "meta_mean_motion_dot": 3.17e-06,
        "meta_mean_motion_ddot": 0,
        "tle_line1": "1 30434U 99025AEV 25355.77435209  .00000317  00000+0  27168-3 0  9993",
        "tle_line2": "2 30434  98.9999 342.3081 0121034 206.5006 329.7568 13.90658292958322"
      },
      "geometry": {
        "type": "Point",
        "coordinates": [
          -64.25033392711919,
          78.00050043666194
        ]
      }
    },
    {
      "type": "Feature",
      "properties": {
        "norad_id": 30435,
        "name": "FENGYUN 1C DEB",
        "group": "fengyun-1c-debris",
        "lat": 45.89806657092441,
        "lon": -26.182499085201915,
        "alt_km": 836.5829443587727,
        "timestamp": "2025-12-23T11:34:48.439975+00:00",
        "meta_object_name": "FENGYUN 1C DEB",
        "meta_object_id": "1999-025AEW",
        "meta_epoch": "2025-12-22T16:28:28.357248",
        "meta_mean_motion": 13.79654795,
        "meta_eccentricity": 0.02086019,
        "meta_inclination": 99.0175,
        "meta_ra_of_asc_node": 342.4893,
        "meta_arg_of_pericenter": 85.2241,
        "meta_mean_anomaly": 331.1507,
        "meta_ephemeris_type": 0,
        "meta_classification_type": "U",
        "meta_norad_cat_id": 30435,
        "meta_element_set_no": 999,
        "meta_rev_at_epoch": 94297,
        "meta_bstar": 0.0014096468,
        "meta_mean_motion_dot": 1.674e-05,
        "meta_mean_motion_ddot": 0,
        "tle_line1": "1 30435U 99025AEW 25356.68643932  .00001674  00000+0  14096-2 0  9991",
        "tle_line2": "2 30435  99.0175 342.4893 0208601  85.2241 331.1507 13.79654795942977"
      },
      "geometry": {
        "type": "Point",
        "coordinates": [
          -26.182499085201915,
          45.89806657092441
        ]
      }
    }
  ]
}